KUIPER-00016            
1 63732U 25088J   25291.28956270  .00002878  00000+0  40624-3 0  9995
2 63732  51.9032  21.2843 0011290 316.1426  43.8639 14.79934336 26245
KUIPER-00018            
1 63733U 25088K   25291.20693925  .00006736  00000+0  97421-3 0  9997
2 63733  51.9031  10.3145 0012518 342.5671  17.4859 14.77059577 26398
KUIPER-00019            
1 63734U 25088L   25291.33336806 -.00021202  00000+0 -27631-2 0  9996
2 63734  51.9008   8.5974 0009083 355.3774 165.9294 14.79863720  4248
KUIPER-00020            
1 63735U 25088M   25291.16461253  .00003323  00000+0  46581-3 0  9991
2 63735  51.9030  13.3195 0007762 330.9462  29.1067 14.79836063 26555
KUIPER-00021            
1 63736U 25088N   25291.23012303  .00004769  00000+0  65395-3 0  9997
2 63736  51.9026  14.0290 0005996 332.8441  27.2207 14.79940345 26385
KUIPER-00023            
1 63737U 25088P   25291.22912995  .00002959  00000+0  41649-3 0  9998
2 63737  51.9021  15.5005 0011547 348.5409  11.5288 14.79972991 26666
KUIPER-00024            
1 63738U 25088Q   25291.22309090  .00003315  00000+0  47047-3 0  9990
2 63738  51.9050   2.8608 0004261 349.4900  10.5972 14.79305039 26963
KUIPER-00025            
1 63739U 25088R   25291.23304568  .00006565  00000+0  89127-3 0  9992
2 63739  51.9017  11.5460 0008780 328.1255  31.9175 14.79828210 26702
