<?xml version="1.0" encoding="UTF-8"?>
<ndm xmlns:xsi="http://www.w3.org/2001/XMLSchema-instance" xsi:noNamespaceSchemaLocation="https://sanaregistry.org/r/ndmxml_unqualified/ndmxml-2.0.0-master-2.0.xsd">
<omm id="CCSDS_OMM_VERS" version="2.0">
<header><CREATION_DATE/><ORIGINATOR/></header><body><segment><metadata><OBJECT_NAME>KUIPER-00016</OBJECT_NAME><OBJECT_ID>2025-088J</OBJECT_ID><CENTER_NAME>EARTH</CENTER_NAME><REF_FRAME>TEME</REF_FRAME><TIME_SYSTEM>UTC</TIME_SYSTEM><MEAN_ELEMENT_THEORY>SGP4</MEAN_ELEMENT_THEORY></metadata><data><meanElements><EPOCH>2025-10-18T06:56:58.217280</EPOCH><MEAN_MOTION>14.79934336</MEAN_MOTION><ECCENTRICITY>.00112907</ECCENTRICITY><INCLINATION>51.9032</INCLINATION><RA_OF_ASC_NODE>21.2843</RA_OF_ASC_NODE><ARG_OF_PERICENTER>316.1426</ARG_OF_PERICENTER><MEAN_ANOMALY>43.8639</MEAN_ANOMALY></meanElements><tleParameters><EPHEMERIS_TYPE>0</EPHEMERIS_TYPE><CLASSIFICATION_TYPE>U</CLASSIFICATION_TYPE><NORAD_CAT_ID>63732</NORAD_CAT_ID><ELEMENT_SET_NO>999</ELEMENT_SET_NO><REV_AT_EPOCH>2624</REV_AT_EPOCH><BSTAR>.40624119E-3</BSTAR><MEAN_MOTION_DOT>.2878E-4</MEAN_MOTION_DOT><MEAN_MOTION_DDOT>0</MEAN_MOTION_DDOT></tleParameters></data></segment></body></omm>
<omm id="CCSDS_OMM_VERS" version="2.0">
<header><CREATION_DATE/><ORIGINATOR/></header><body><segment><metadata><OBJECT_NAME>KUIPER-00018</OBJECT_NAME><OBJECT_ID>2025-088K</OBJECT_ID><CENTER_NAME>EARTH</CENTER_NAME><REF_FRAME>TEME</REF_FRAME><TIME_SYSTEM>UTC</TIME_SYSTEM><MEAN_ELEMENT_THEORY>SGP4</MEAN_ELEMENT_THEORY></metadata><data><meanElements><EPOCH>2025-10-18T04:57:59.551200</EPOCH><MEAN_MOTION>14.77059577</MEAN_MOTION><ECCENTRICITY>.00125187</ECCENTRICITY><INCLINATION>51.9031</INCLINATION><RA_OF_ASC_NODE>10.3145</RA_OF_ASC_NODE><ARG_OF_PERICENTER>342.5671</ARG_OF_PERICENTER><MEAN_ANOMALY>17.4859</MEAN_ANOMALY></meanElements><tleParameters><EPHEMERIS_TYPE>0</EPHEMERIS_TYPE><CLASSIFICATION_TYPE>U</CLASSIFICATION_TYPE><NORAD_CAT_ID>63733</NORAD_CAT_ID><ELEMENT_SET_NO>999</ELEMENT_SET_NO><REV_AT_EPOCH>2639</REV_AT_EPOCH><BSTAR>.97421451E-3</BSTAR><MEAN_MOTION_DOT>.6736E-4</MEAN_MOTION_DOT><MEAN_MOTION_DDOT>0</MEAN_MOTION_DDOT></tleParameters></data></segment></body></omm>
<omm id="CCSDS_OMM_VERS" version="2.0">
<header><CREATION_DATE/><ORIGINATOR/></header><body><segment><metadata><OBJECT_NAME>KUIPER-00019</OBJECT_NAME><OBJECT_ID>2025-088L</OBJECT_ID><CENTER_NAME>EARTH</CENTER_NAME><REF_FRAME>TEME</REF_FRAME><TIME_SYSTEM>UTC</TIME_SYSTEM><MEAN_ELEMENT_THEORY>SGP4</MEAN_ELEMENT_THEORY></metadata><data><meanElements><EPOCH>2025-10-18T08:00:03.000384</EPOCH><MEAN_MOTION>14.79863720</MEAN_MOTION><ECCENTRICITY>.00090834</ECCENTRICITY><INCLINATION>51.9008</INCLINATION><RA_OF_ASC_NODE>8.5974</RA_OF_ASC_NODE><ARG_OF_PERICENTER>355.3774</ARG_OF_PERICENTER><MEAN_ANOMALY>165.9294</MEAN_ANOMALY></meanElements><tleParameters><EPHEMERIS_TYPE>0</EPHEMERIS_TYPE><CLASSIFICATION_TYPE>U</CLASSIFICATION_TYPE><NORAD_CAT_ID>63734</NORAD_CAT_ID><ELEMENT_SET_NO>999</ELEMENT_SET_NO><REV_AT_EPOCH>424</REV_AT_EPOCH><BSTAR>-.27631427E-2</BSTAR><MEAN_MOTION_DOT>-.21202E-3</MEAN_MOTION_DOT><MEAN_MOTION_DDOT>0</MEAN_MOTION_DDOT></tleParameters></data></segment></body></omm>
<omm id="CCSDS_OMM_VERS" version="2.0">
<header><CREATION_DATE/><ORIGINATOR/></header><body><segment><metadata><OBJECT_NAME>KUIPER-00020</OBJECT_NAME><OBJECT_ID>2025-088M</OBJECT_ID><CENTER_NAME>EARTH</CENTER_NAME><REF_FRAME>TEME</REF_FRAME><TIME_SYSTEM>UTC</TIME_SYSTEM><MEAN_ELEMENT_THEORY>SGP4</MEAN_ELEMENT_THEORY></metadata><data><meanElements><EPOCH>2025-10-18T03:57:02.522592</EPOCH><MEAN_MOTION>14.79836063</MEAN_MOTION><ECCENTRICITY>.0007762</ECCENTRICITY><INCLINATION>51.9030</INCLINATION><RA_OF_ASC_NODE>13.3195</RA_OF_ASC_NODE><ARG_OF_PERICENTER>330.9462</ARG_OF_PERICENTER><MEAN_ANOMALY>29.1067</MEAN_ANOMALY></meanElements><tleParameters><EPHEMERIS_TYPE>0</EPHEMERIS_TYPE><CLASSIFICATION_TYPE>U</CLASSIFICATION_TYPE><NORAD_CAT_ID>63735</NORAD_CAT_ID><ELEMENT_SET_NO>999</ELEMENT_SET_NO><REV_AT_EPOCH>2655</REV_AT_EPOCH><BSTAR>.46581182E-3</BSTAR><MEAN_MOTION_DOT>.3323E-4</MEAN_MOTION_DOT><MEAN_MOTION_DDOT>0</MEAN_MOTION_DDOT></tleParameters></data></segment></body></omm>
<omm id="CCSDS_OMM_VERS" version="2.0">
<header><CREATION_DATE/><ORIGINATOR/></header><body><segment><metadata><OBJECT_NAME>KUIPER-00021</OBJECT_NAME><OBJECT_ID>2025-088N</OBJECT_ID><CENTER_NAME>EARTH</CENTER_NAME><REF_FRAME>TEME</REF_FRAME><TIME_SYSTEM>UTC</TIME_SYSTEM><MEAN_ELEMENT_THEORY>SGP4</MEAN_ELEMENT_THEORY></metadata><data><meanElements><EPOCH>2025-10-18T05:31:22.629792</EPOCH><MEAN_MOTION>14.79940345</MEAN_MOTION><ECCENTRICITY>.00059962</ECCENTRICITY><INCLINATION>51.9026</INCLINATION><RA_OF_ASC_NODE>14.0290</RA_OF_ASC_NODE><ARG_OF_PERICENTER>332.8441</ARG_OF_PERICENTER><MEAN_ANOMALY>27.2207</MEAN_ANOMALY></meanElements><tleParameters><EPHEMERIS_TYPE>0</EPHEMERIS_TYPE><CLASSIFICATION_TYPE>U</CLASSIFICATION_TYPE><NORAD_CAT_ID>63736</NORAD_CAT_ID><ELEMENT_SET_NO>999</ELEMENT_SET_NO><REV_AT_EPOCH>2638</REV_AT_EPOCH><BSTAR>.65394994E-3</BSTAR><MEAN_MOTION_DOT>.4769E-4</MEAN_MOTION_DOT><MEAN_MOTION_DDOT>0</MEAN_MOTION_DDOT></tleParameters></data></segment></body></omm>
<omm id="CCSDS_OMM_VERS" version="2.0">
<header><CREATION_DATE/><ORIGINATOR/></header><body><segment><metadata><OBJECT_NAME>KUIPER-00023</OBJECT_NAME><OBJECT_ID>2025-088P</OBJECT_ID><CENTER_NAME>EARTH</CENTER_NAME><REF_FRAME>TEME</REF_FRAME><TIME_SYSTEM>UTC</TIME_SYSTEM><MEAN_ELEMENT_THEORY>SGP4</MEAN_ELEMENT_THEORY></metadata><data><meanElements><EPOCH>2025-10-18T05:29:56.827680</EPOCH><MEAN_MOTION>14.79972991</MEAN_MOTION><ECCENTRICITY>.00115472</ECCENTRICITY><INCLINATION>51.9021</INCLINATION><RA_OF_ASC_NODE>15.5005</RA_OF_ASC_NODE><ARG_OF_PERICENTER>348.5409</ARG_OF_PERICENTER><MEAN_ANOMALY>11.5288</MEAN_ANOMALY></meanElements><tleParameters><EPHEMERIS_TYPE>0</EPHEMERIS_TYPE><CLASSIFICATION_TYPE>U</CLASSIFICATION_TYPE><NORAD_CAT_ID>63737</NORAD_CAT_ID><ELEMENT_SET_NO>999</ELEMENT_SET_NO><REV_AT_EPOCH>2666</REV_AT_EPOCH><BSTAR>.41648582E-3</BSTAR><MEAN_MOTION_DOT>.2959E-4</MEAN_MOTION_DOT><MEAN_MOTION_DDOT>0</MEAN_MOTION_DDOT></tleParameters></data></segment></body></omm>
<omm id="CCSDS_OMM_VERS" version="2.0">
<header><CREATION_DATE/><ORIGINATOR/></header><body><segment><metadata><OBJECT_NAME>KUIPER-00024</OBJECT_NAME><OBJECT_ID>2025-088Q</OBJECT_ID><CENTER_NAME>EARTH</CENTER_NAME><REF_FRAME>TEME</REF_FRAME><TIME_SYSTEM>UTC</TIME_SYSTEM><MEAN_ELEMENT_THEORY>SGP4</MEAN_ELEMENT_THEORY></metadata><data><meanElements><EPOCH>2025-10-18T05:21:15.053760</EPOCH><MEAN_MOTION>14.79305039</MEAN_MOTION><ECCENTRICITY>.00042611</ECCENTRICITY><INCLINATION>51.9050</INCLINATION><RA_OF_ASC_NODE>2.8608</RA_OF_ASC_NODE><ARG_OF_PERICENTER>349.4900</ARG_OF_PERICENTER><MEAN_ANOMALY>10.5972</MEAN_ANOMALY></meanElements><tleParameters><EPHEMERIS_TYPE>0</EPHEMERIS_TYPE><CLASSIFICATION_TYPE>U</CLASSIFICATION_TYPE><NORAD_CAT_ID>63738</NORAD_CAT_ID><ELEMENT_SET_NO>999</ELEMENT_SET_NO><REV_AT_EPOCH>2696</REV_AT_EPOCH><BSTAR>.47047441E-3</BSTAR><MEAN_MOTION_DOT>.3315E-4</MEAN_MOTION_DOT><MEAN_MOTION_DDOT>0</MEAN_MOTION_DDOT></tleParameters></data></segment></body></omm>
<omm id="CCSDS_OMM_VERS" version="2.0">
<header><CREATION_DATE/><ORIGINATOR/></header><body><segment><metadata><OBJECT_NAME>KUIPER-00025</OBJECT_NAME><OBJECT_ID>2025-088R</OBJECT_ID><CENTER_NAME>EARTH</CENTER_NAME><REF_FRAME>TEME</REF_FRAME><TIME_SYSTEM>UTC</TIME_SYSTEM><MEAN_ELEMENT_THEORY>SGP4</MEAN_ELEMENT_THEORY></metadata><data><meanElements><EPOCH>2025-10-18T05:35:35.146752</EPOCH><MEAN_MOTION>14.79828210</MEAN_MOTION><ECCENTRICITY>.000878</ECCENTRICITY><INCLINATION>51.9017</INCLINATION><RA_OF_ASC_NODE>11.5460</RA_OF_ASC_NODE><ARG_OF_PERICENTER>328.1255</ARG_OF_PERICENTER><MEAN_ANOMALY>31.9175</MEAN_ANOMALY></meanElements><tleParameters><EPHEMERIS_TYPE>0</EPHEMERIS_TYPE><CLASSIFICATION_TYPE>U</CLASSIFICATION_TYPE><NORAD_CAT_ID>63739</NORAD_CAT_ID><ELEMENT_SET_NO>999</ELEMENT_SET_NO><REV_AT_EPOCH>2670</REV_AT_EPOCH><BSTAR>.89126569E-3</BSTAR><MEAN_MOTION_DOT>.6565E-4</MEAN_MOTION_DOT><MEAN_MOTION_DDOT>0</MEAN_MOTION_DDOT></tleParameters></data></segment></body></omm>

</ndm>
